0 FENGYUN 1C DEB
1 35213U 99025DPV 13283.40545258  .00012383  00000-0  19097-2 0  4146
2 35213 098.4903 347.2302 0242263 135.8807 284.5631 14.55659116269651
0 FENGYUN 1C DEB
1 35213U 99025DPV 13285.39898383  .00009414  00000-0  14542-2 0  4158
2 35213 098.4910 349.2594 0242096 129.7620 291.5134 14.55692820269940
0 FENGYUN 1C DEB
1 35213U 99025DPV 13288.14290400  .00015606  00000-0  24017-2 0  4169
2 35213 098.4917 352.0516 0241790 121.3763 271.1932 14.55746798270349
0 FENGYUN 1C DEB
1 35213U 99025DPV 13289.38585941  .00012499  00000-0  19245-2 0  4178
2 35213 098.4919 353.3173 0241844 117.5585 305.2009 14.55773605270524
0 FENGYUN 1C DEB
1 35213U 99025DPV 13290.41595258  .00012684  00000-0  19516-2 0  4184
2 35213 098.4915 354.3664 0241890 114.4019 303.7295 14.55792767270671
0 FENGYUN 1C DEB
1 35213U 99025DPV 13292.97144794  .00009532  00000-0  14686-2 0  4194
2 35213 098.4893 356.9670 0241715 106.5800 016.9287 14.55839670271048
0 FENGYUN 1C DEB
1 35213U 99025DPV 13295.43309207  .00011766  00000-0  18085-2 0  4201
2 35213 098.4886 359.4718 0241673 099.0311 318.6479 14.55879578271403
